ORBCOMM FM115           
1 41186U 15081H   24239.69678846  .00002308  00000+0  49976-3 0  9999
2 41186  46.9998 358.8711 0001067 224.6073 135.4728 14.61096375464688
ORBCOMM FM108           
1 41187U 15081J   24239.77703083  .00002024  00000+0  48339-3 0  9998
2 41187  47.0048  56.2370 0001563  29.2562 330.8411 14.56952730463847
ORBCOMM FM117           
1 41188U 15081K   24239.81169156  .00002194  00000+0  52097-3 0  9995
2 41188  47.0010  54.9327 0002170  49.2027 310.9046 14.56938909463897
ORBCOMM FM116           
1 41189U 15081L   24239.45793061  .00002618  00000+0  61573-3 0  9994
2 41189  47.0008 146.4278 0001847 144.6314 215.4694 14.56838801462657
